{
  "norad_id": 67186,
  "name": "STARLINK-35857",
  "history": [
    {
      "epoch": "2026-03-28T08:52:54.352128Z",
      "apogee_km": 483.77863096960937,
      "perigee_km": 482.2019439189535,
      "latitude_deg": 5.474171379614042e-06,
      "longitude_deg": -113.93955818795361,
      "height_km": 483.3792564412857,
      "semi_major_axis_km": 6861.127287444281,
      "eccentricity": 0.0001149,
      "inclination_deg": 43.001,
      "raan_deg": 205.0784,
      "arg_perigee_deg": 218.9793,
      "mean_anomaly_deg": 141.0976,
      "mean_motion_rev_day": 15.2759964
    },
    {
      "epoch": "2026-03-29T00:34:27.552000Z",
      "apogee_km": 484.62006630218184,
      "perigee_km": 481.26225465044445,
      "latitude_deg": 4.0665335851529514e-05,
      "longitude_deg": 6.339075946614056,
      "height_km": 482.2489638271509,
      "semi_major_axis_km": 6861.078160476312,
      "eccentricity": 0.0002447,
      "inclination_deg": 43.0044,
      "raan_deg": 201.3898,
      "arg_perigee_deg": 286.263,
      "mean_anomaly_deg": 73.7953,
      "mean_motion_rev_day": 15.27616047
    }
  ]
}